{
  "type": "FeatureCollection",
  "name": "borom_depot_visible_roof_polygons",
  "crs": {
    "type": "name",
    "properties": {"name": "urn:ogc:def:crs:OGC:1.3:CRS84"}
  },
  "features": [
    {
      "type": "Feature",
      "properties": {"roof_id": "north_workshop", "gross_area_m2": 1057.4, "desktop_status": "visible_roof_footprint"},
      "geometry": {"type": "Polygon", "coordinates": [[[100.3904979, 13.7867260], [100.3909018, 13.7867633], [100.3909782, 13.7865676], [100.3905696, 13.7865070], [100.3904979, 13.7867260]]]}
    },
    {
      "type": "Feature",
      "properties": {"roof_id": "east_workshop", "gross_area_m2": 535.0, "desktop_status": "visible_roof_footprint"},
      "geometry": {"type": "Polygon", "coordinates": [[[100.3916429, 13.7866678], [100.3917621, 13.7866565], [100.3917340, 13.7863056], [100.3916009, 13.7863215], [100.3916429, 13.7866678]]]}
    },
    {
      "type": "Feature",
      "properties": {"roof_id": "southeast_workshop", "gross_area_m2": 1096.4, "desktop_status": "visible_roof_footprint"},
      "geometry": {"type": "Polygon", "coordinates": [[[100.3911772, 13.7862295], [100.3917149, 13.7862136], [100.3916681, 13.7860268], [100.3911304, 13.7860838], [100.3911772, 13.7862295]]]}
    },
    {
      "type": "Feature",
      "properties": {"roof_id": "southwest_north", "gross_area_m2": 191.8, "desktop_status": "visible_roof_footprint"},
      "geometry": {"type": "Polygon", "coordinates": [[[100.3898638, 13.7859453], [100.3899657, 13.7859494], [100.3899677, 13.7857975], [100.3898597, 13.7857934], [100.3898638, 13.7859453]]]}
    },
    {
      "type": "Feature",
      "properties": {"roof_id": "southwest_middle", "gross_area_m2": 344.7, "desktop_status": "visible_roof_footprint"},
      "geometry": {"type": "Polygon", "coordinates": [[[100.3900179, 13.7859262], [100.3902168, 13.7859240], [100.3902190, 13.7857813], [100.3900133, 13.7857858], [100.3900179, 13.7859262]]]}
    },
    {
      "type": "Feature",
      "properties": {"roof_id": "southwest_south", "gross_area_m2": 588.5, "desktop_status": "visible_roof_footprint"},
      "geometry": {"type": "Polygon", "coordinates": [[[100.3898354, 13.7857412], [100.3902095, 13.7857390], [100.3902095, 13.7856091], [100.3898308, 13.7856113], [100.3898354, 13.7857412]]]}
    },
    {
      "type": "Feature",
      "properties": {"roof_id": "east_narrow", "gross_area_m2": 109.2, "desktop_status": "visible_roof_footprint"},
      "geometry": {"type": "Polygon", "coordinates": [[[100.3914992, 13.7859663], [100.3915579, 13.7859583], [100.3915537, 13.7858043], [100.3914950, 13.7858123], [100.3914992, 13.7859663]]]}
    }
  ]
}
