{
  "type": "FeatureCollection",
  "name": "modeled_bus_route_corridors",
  "crs": {
    "type": "name",
    "properties": {"name": "urn:ogc:def:crs:OGC:1.3:CRS84"}
  },
  "features": [
    {
      "type": "Feature",
      "properties": {
        "route_id": "7K",
        "model_bus": "bus_route_7k",
        "terminus": "Pahurat",
        "geometry_status": "indicative_corridor_not_gps_trace",
        "color": "#0072B2"
      },
      "geometry": {
        "type": "LineString",
        "coordinates": [
          [100.3901683, 13.7858496],
          [100.4228000, 13.7804000],
          [100.4460000, 13.7790000],
          [100.4740000, 13.7680000],
          [100.4900000, 13.7620000],
          [100.4970000, 13.7560000],
          [100.5009000, 13.7443000]
        ]
      }
    },
    {
      "type": "Feature",
      "properties": {
        "route_id": "79",
        "model_bus": "bus_route_79",
        "terminus": "Ratchaprasong",
        "geometry_status": "indicative_corridor_not_gps_trace",
        "color": "#D55E00"
      },
      "geometry": {
        "type": "LineString",
        "coordinates": [
          [100.3901683, 13.7858496],
          [100.4228000, 13.7804000],
          [100.4460000, 13.7790000],
          [100.4740000, 13.7680000],
          [100.4900000, 13.7620000],
          [100.5100000, 13.7570000],
          [100.5230000, 13.7540000],
          [100.5392000, 13.7465000]
        ]
      }
    },
    {
      "type": "Feature",
      "properties": {
        "route_id": "101",
        "model_bus": "bus_route_101",
        "terminus": "Wat Yai Rom",
        "geometry_status": "indicative_corridor_not_gps_trace",
        "color": "#009E73"
      },
      "geometry": {
        "type": "LineString",
        "coordinates": [
          [100.3901683, 13.7858496],
          [100.4040000, 13.7640000],
          [100.4150000, 13.7410000],
          [100.4310000, 13.7210000],
          [100.4520000, 13.7050000],
          [100.4600000, 13.6890000],
          [100.4647900, 13.6756700]
        ]
      }
    }
  ]
}
